[{"OBJECT_NAME":"TRANSPORTER-15 OBJECT DM","OBJECT_ID":"2025-276DM","EPOCH":"2026-03-09T22:43:55.888032","MEAN_MOTION":15.19567791,"ECCENTRICITY":0.00018743,"INCLINATION":97.4286,"RA_OF_ASC_NODE":144.3741,"ARG_OF_PERICENTER":156.2959,"MEAN_ANOMALY":203.8363,"EPHEMERIS_TYPE":0,"CLASSIFICATION_TYPE":"U","NORAD_CAT_ID":66773,"ELEMENT_SET_NO":999,"REV_AT_EPOCH":1536,"BSTAR":0.00033320961,"MEAN_MOTION_DOT":7.022e-5,"MEAN_MOTION_DDOT":0},{"OBJECT_NAME":"NOAA 16 DEB","OBJECT_ID":"2000-055RD","EPOCH":"2026-03-08T14:49:38.721792","MEAN_MOTION":15.14089507,"ECCENTRICITY":0.00084032,"INCLINATION":98.9038,"RA_OF_ASC_NODE":208.7699,"ARG_OF_PERICENTER":346.4163,"MEAN_ANOMALY":13.6837,"EPHEMERIS_TYPE":0,"CLASSIFICATION_TYPE":"U","NORAD_CAT_ID":42361,"ELEMENT_SET_NO":999,"REV_AT_EPOCH":52359,"BSTAR":0.022314151,"MEAN_MOTION_DOT":0.0043103,"MEAN_MOTION_DDOT":0}]
